2026-023D               
1 67677U 26023D   26047.03448595  .00012654  00000+0  54754-3 0  9998
2 67677  96.6471 122.4904 0019038 202.6670 157.3730 15.22377514  1558
2026-023E               
1 67678U 26023E   26047.16536593  .00014542  00000+0  62673-3 0  9996
2 67678  96.6364 122.6091 0018901 201.5398 158.5047 15.22487630  1579
2026-023F               
1 67679U 26023F   26047.23013086  .00014155  00000+0  60717-3 0  9999
2 67679  96.6371 125.1639 0020832 196.0388 164.0194 15.22615990  1574
2026-023G               
1 67680U 26023G   26047.16466027  .00015130  00000+0  64869-3 0  9996
2 67680  96.6299 125.1042 0022440 192.7306 167.3368 15.22586455  1564
2026-023H               
1 67681U 26023H   26046.83586314  .00001038  00000+0  46915-4 0  9997
2 67681  96.6442 124.8124 0022456 193.4246 166.6398 15.22579253  1518
2026-023J               
1 67682U 26023J   26047.16422266  .00013972  00000+0  59814-3 0  9991
2 67682  96.6400 125.1172 0022624 188.9124 171.1716 15.22651774  1560
ISS OBJECT XZ           
1 67683U 98067XZ  26046.56141887  .00041718  00000+0  73306-3 0  9990
2 67683  51.6309 181.6425 0010523 114.1379 246.0711 15.50024026  1355
GXIBA-1                 
1 67684U 98067YA  26046.62188020  .00079760  00000+0  13427-2 0  9993
2 67684  51.6308 181.2974 0012194 107.9259 252.3061 15.50928895  1369
CORAL                   
1 67685U 98067YB  26046.88295854  .00045696  00000+0  79589-3 0  9999
2 67685  51.6310 180.0402 0012424 110.6122 249.6200 15.50209257  1405
ISS OBJECT YC           
1 67686U 98067YC  26046.62439076  .00056075  00000+0  97002-3 0  9991
2 67686  51.6313 181.3144 0007784  83.9210 276.2666 15.50363594  1361
LEOPARD                 
1 67687U 98067YD  26046.56095633  .00044466  00000+0  77880-3 0  9995
2 67687  51.6313 181.6402 0007861  86.0816 274.1071 15.50114031  1271
ISS OBJECT YE           
1 67688U 98067YE  26046.62464706  .00052367  00000+0  90932-3 0  9996
2 67688  51.6316 181.3167 0007758  84.5010 275.6864 15.50286221  1282
